{
  "type": "FeatureCollection",
  "features": [
    {
      "type": "Feature",
      "properties": {
        "norad_id": 34478,
        "name": "COSMOS 2251 DEB",
        "group": "cosmos-2251-debris",
        "lat": 60.172441878999244,
        "lon": 157.4659856666696,
        "alt_km": 545.7521721393277,
        "timestamp": "2025-12-12T11:38:31.807123+00:00",
        "meta_object_name": "COSMOS 2251 DEB",
        "meta_object_id": "1993-036TX",
        "meta_epoch": "2025-12-11T21:06:07.015968",
        "meta_mean_motion": 15.0789624,
        "meta_eccentricity": 0.0035038,
        "meta_inclination": 74.0401,
        "meta_ra_of_asc_node": 8.6555,
        "meta_arg_of_pericenter": 230.1524,
        "meta_mean_anomaly": 198.2709,
        "meta_ephemeris_type": 0,
        "meta_classification_type": "U",
        "meta_norad_cat_id": 34478,
        "meta_element_set_no": 999,
        "meta_rev_at_epoch": 88960,
        "meta_bstar": 0.0034381,
        "meta_mean_motion_dot": 0.00053866,
        "meta_mean_motion_ddot": 0,
        "tle_line1": "1 34478U 93036TX  25345.87924787  .00053866  00000+0  34381-2 0  9996",
        "tle_line2": "2 34478  74.0401   8.6555 0035038 230.1524 198.2709 15.07896240889608"
      },
      "geometry": {
        "type": "Point",
        "coordinates": [
          157.4659856666696,
          60.172441878999244
        ]
      }
    },
    {
      "type": "Feature",
      "properties": {
        "norad_id": 34481,
        "name": "COSMOS 2251 DEB",
        "group": "cosmos-2251-debris",
        "lat": 38.764106716749936,
        "lon": -139.41496281238773,
        "alt_km": 778.7242476036035,
        "timestamp": "2025-12-12T11:38:31.807133+00:00",
        "meta_object_name": "COSMOS 2251 DEB",
        "meta_object_id": "1993-036UA",
        "meta_epoch": "2025-12-12T04:25:27.268896",
        "meta_mean_motion": 14.32548226,
        "meta_eccentricity": 0.0070734,
        "meta_inclination": 73.9803,
        "meta_ra_of_asc_node": 54.4741,
        "meta_arg_of_pericenter": 228.9208,
        "meta_mean_anomaly": 160.7713,
        "meta_ephemeris_type": 0,
        "meta_classification_type": "U",
        "meta_norad_cat_id": 34481,
        "meta_element_set_no": 999,
        "meta_rev_at_epoch": 87441,
        "meta_bstar": 0.0011097,
        "meta_mean_motion_dot": 3.069e-05,
        "meta_mean_motion_ddot": 0,
        "tle_line1": "1 34481U 93036UA  25346.18434339  .00003069  00000+0  11097-2 0  9993",
        "tle_line2": "2 34481  73.9803  54.4741 0070734 228.9208 160.7713 14.32548226874415"
      },
      "geometry": {
        "type": "Point",
        "coordinates": [
          -139.41496281238773,
          38.764106716749936
        ]
      }
    },
    {
      "type": "Feature",
      "properties": {
        "norad_id": 34482,
        "name": "COSMOS 2251 DEB",
        "group": "cosmos-2251-debris",
        "lat": -72.66107343888685,
        "lon": 157.62109674422948,
        "alt_km": 639.2232631649103,
        "timestamp": "2025-12-12T11:38:31.807143+00:00",
        "meta_object_name": "COSMOS 2251 DEB",
        "meta_object_id": "1993-036UB",
        "meta_epoch": "2025-12-12T02:47:15.492192",
        "meta_mean_motion": 14.69165188,
        "meta_eccentricity": 0.0044981,
        "meta_inclination": 74.0369,
        "meta_ra_of_asc_node": 224.7998,
        "meta_arg_of_pericenter": 284.9309,
        "meta_mean_anomaly": 201.4699,
        "meta_ephemeris_type": 0,
        "meta_classification_type": "U",
        "meta_norad_cat_id": 34482,
        "meta_element_set_no": 999,
        "meta_rev_at_epoch": 88178,
        "meta_bstar": 0.002686,
        "meta_mean_motion_dot": 0.00016058,
        "meta_mean_motion_ddot": 0,
        "tle_line1": "1 34482U 93036UB  25346.11615153  .00016058  00000+0  26860-2 0  9998",
        "tle_line2": "2 34482  74.0369 224.7998 0044981 284.9309 201.4699 14.69165188881786"
      },
      "geometry": {
        "type": "Point",
        "coordinates": [
          157.62109674422948,
          -72.66107343888685
        ]
      }
    },
    {
      "type": "Feature",
      "properties": {
        "norad_id": 34544,
        "name": "COSMOS 2251 DEB",
        "group": "cosmos-2251-debris",
        "lat": -73.90514206792596,
        "lon": 114.38428867720708,
        "alt_km": 830.2941603773334,
        "timestamp": "2025-12-12T11:38:31.807154+00:00",
        "meta_object_name": "COSMOS 2251 DEB",
        "meta_object_id": "1993-036UE",
        "meta_epoch": "2025-12-12T00:21:12.621024",
        "meta_mean_motion": 13.54662124,
        "meta_eccentricity": 0.0384208,
        "meta_inclination": 73.9143,
        "meta_ra_of_asc_node": 205.2029,
        "meta_arg_of_pericenter": 233.7808,
        "meta_mean_anomaly": 260.6102,
        "meta_ephemeris_type": 0,
        "meta_classification_type": "U",
        "meta_norad_cat_id": 34544,
        "meta_element_set_no": 999,
        "meta_rev_at_epoch": 82872,
        "meta_bstar": 0.00036681,
        "meta_mean_motion_dot": 3.79e-06,
        "meta_mean_motion_ddot": 0,
        "tle_line1": "1 34544U 93036UE  25346.01472941  .00000379  00000+0  36681-3 0  9994",
        "tle_line2": "2 34544  73.9143 205.2029 0384208 233.7808 260.6102 13.54662124828723"
      },
      "geometry": {
        "type": "Point",
        "coordinates": [
          114.38428867720708,
          -73.90514206792596
        ]
      }
    },
    {
      "type": "Feature",
      "properties": {
        "norad_id": 34546,
        "name": "COSMOS 2251 DEB",
        "group": "cosmos-2251-debris",
        "lat": 44.01189323474428,
        "lon": 53.601717145398105,
        "alt_km": 751.9943386689956,
        "timestamp": "2025-12-12T11:38:31.807164+00:00",
        "meta_object_name": "COSMOS 2251 DEB",
        "meta_object_id": "1993-036UG",
        "meta_epoch": "2025-12-11T22:18:41.199264",
        "meta_mean_motion": 14.45406778,
        "meta_eccentricity": 0.0021921,
        "meta_inclination": 74.0311,
        "meta_ra_of_asc_node": 250.6964,
        "meta_arg_of_pericenter": 324.5056,
        "meta_mean_anomaly": 160.0175,
        "meta_ephemeris_type": 0,
        "meta_classification_type": "U",
        "meta_norad_cat_id": 34546,
        "meta_element_set_no": 999,
        "meta_rev_at_epoch": 88014,
        "meta_bstar": 0.0010497,
        "meta_mean_motion_dot": 3.679e-05,
        "meta_mean_motion_ddot": 0,
        "tle_line1": "1 34546U 93036UG  25345.92964351  .00003679  00000+0  10497-2 0  9998",
        "tle_line2": "2 34546  74.0311 250.6964 0021921 324.5056 160.0175 14.45406778880149"
      },
      "geometry": {
        "type": "Point",
        "coordinates": [
          53.601717145398105,
          44.01189323474428
        ]
      }
    },
    {
      "type": "Feature",
      "properties": {
        "norad_id": 34547,
        "name": "COSMOS 2251 DEB",
        "group": "cosmos-2251-debris",
        "lat": -58.38921679936252,
        "lon": 73.49202591816066,
        "alt_km": 666.0830443432005,
        "timestamp": "2025-12-12T11:38:31.807174+00:00",
        "meta_object_name": "COSMOS 2251 DEB",
        "meta_object_id": "1993-036UH",
        "meta_epoch": "2025-12-11T14:43:32.841120",
        "meta_mean_motion": 14.72298648,
        "meta_eccentricity": 0.00175909,
        "meta_inclination": 74.0303,
        "meta_ra_of_asc_node": 102.9163,
        "meta_arg_of_pericenter": 182.0571,
        "meta_mean_anomaly": 178.0532,
        "meta_ephemeris_type": 0,
        "meta_classification_type": "U",
        "meta_norad_cat_id": 34547,
        "meta_element_set_no": 999,
        "meta_rev_at_epoch": 88505,
        "meta_bstar": 0.003400892,
        "meta_mean_motion_dot": 0.00021587,
        "meta_mean_motion_ddot": 0,
        "tle_line1": "1 34547U 93036UH  25345.61357455  .00021587  00000+0  34009-2 0  9999",
        "tle_line2": "2 34547  74.0303 102.9163 0017590 182.0571 178.0532 14.72298648885053"
      },
      "geometry": {
        "type": "Point",
        "coordinates": [
          73.49202591816066,
          -58.38921679936252
        ]
      }
    },
    {
      "type": "Feature",
      "properties": {
        "norad_id": 34553,
        "name": "COSMOS 2251 DEB",
        "group": "cosmos-2251-debris",
        "lat": -26.147546217924244,
        "lon": 20.46075352474885,
        "alt_km": 699.5146193050405,
        "timestamp": "2025-12-12T11:38:31.807185+00:00",
        "meta_object_name": "COSMOS 2251 DEB",
        "meta_object_id": "1993-036UP",
        "meta_epoch": "2025-12-11T17:06:02.921184",
        "meta_mean_motion": 14.57707101,
        "meta_eccentricity": 0.00193719,
        "meta_inclination": 74.0247,
        "meta_ra_of_asc_node": 193.8454,
        "meta_arg_of_pericenter": 271.2686,
        "meta_mean_anomaly": 203.5704,
        "meta_ephemeris_type": 0,
        "meta_classification_type": "U",
        "meta_norad_cat_id": 34553,
        "meta_element_set_no": 999,
        "meta_rev_at_epoch": 88081,
        "meta_bstar": 0.0015912729,
        "meta_mean_motion_dot": 7.262e-05,
        "meta_mean_motion_ddot": 0,
        "tle_line1": "1 34553U 93036UP  25345.71253381  .00007262  00000+0  15913-2 0  9997",
        "tle_line2": "2 34553  74.0247 193.8454 0019371 271.2686 203.5704 14.57707101880812"
      },
      "geometry": {
        "type": "Point",
        "coordinates": [
          20.46075352474885,
          -26.147546217924244
        ]
      }
    }
  ]
}